[{"OBJECT_NAME":"STARLINK-31967","OBJECT_ID":"2024-111F","EPOCH":"2026-03-09T09:40:25.801824","MEAN_MOTION":15.3019008,"ECCENTRICITY":0.00013766,"INCLINATION":53.1598,"RA_OF_ASC_NODE":76.6673,"ARG_OF_PERICENTER":88.3898,"MEAN_ANOMALY":271.7261,"EPHEMERIS_TYPE":0,"CLASSIFICATION_TYPE":"U","NORAD_CAT_ID":60021,"ELEMENT_SET_NO":999,"REV_AT_EPOCH":9900,"BSTAR":-2.6110032e-5,"MEAN_MOTION_DOT":-1.132e-5,"MEAN_MOTION_DDOT":0},{"OBJECT_NAME":"OBJECT F","OBJECT_ID":"2021-022F","EPOCH":"2026-03-09T23:37:37.165152","MEAN_MOTION":15.31317672,"ECCENTRICITY":0.00120882,"INCLINATION":97.3982,"RA_OF_ASC_NODE":329.8375,"ARG_OF_PERICENTER":85.9268,"MEAN_ANOMALY":274.3355,"EPHEMERIS_TYPE":0,"CLASSIFICATION_TYPE":"U","NORAD_CAT_ID":47937,"ELEMENT_SET_NO":999,"REV_AT_EPOCH":27452,"BSTAR":0.00038690553,"MEAN_MOTION_DOT":0.00011656,"MEAN_MOTION_DDOT":0}]
